ONEWEB-0208             
1 48243U 21031AK  26098.96889038 -.00000155  00000+0 -45181-3 0  9998
2 48243  87.8937 303.5212 0001817  78.2588 281.8746 13.14500970239219
ONEWEB-0200             
1 48244U 21031AL  26099.00853013  .00000295  00000+0  76235-3 0  9996
2 48244  87.8933 303.5013 0001626  84.0892 276.0423 13.14502206239140
ONEWEB-0217             
1 48245U 21031AM  26098.94827128  .00000228  00000+0  57963-3 0  9990
2 48245  87.8938 303.5142 0001810  76.4717 283.6614 13.14501381239087
ONEWEB-0211             
1 48767U 21045A   26099.01272990  .00000103  00000+0  23737-3 0  9998
2 48767  87.8939 272.8995 0002188  78.3865 281.7511 13.16192579235342
ONEWEB-0223             
1 48768U 21045B   26098.98109399 -.00000036  00000+0 -13084-3 0  9997
2 48768  87.8939 272.9957 0002133  88.2395 271.8980 13.15546921235309
ONEWEB-0230             
1 48769U 21045C   26098.95257446 -.00000012  00000+0 -66812-4 0  9994
2 48769  87.8932 273.0214 0001706  98.4775 261.6549 13.15547160235563
ONEWEB-0237             
1 48770U 21045D   26098.94148298 -.00000010  00000+0 -60091-4 0  9990
2 48770  87.8933 273.0253 0002040  94.7912 265.3451 13.15547451235288
ONEWEB-0235             
1 48771U 21045E   26098.99218175  .00000047  00000+0  91593-4 0  9997
2 48771  87.8939 272.9942 0002174  90.2905 269.8475 13.15547272235285
ONEWEB-0242             
1 48772U 21045F   26099.21401087  .00000047  00000+0  91625-4 0  9996
2 48772  87.8941 272.9457 0001940  96.9568 263.1783 13.15547477235352
ONEWEB-0241             
1 48773U 21045G   26098.97316828 -.00000077  00000+0 -23825-3 0  9998
2 48773  87.8929 273.0200 0002054  84.9531 275.1834 13.15547009235239
ONEWEB-0243             
1 48774U 21045H   26099.00487224  .00000160  00000+0  39190-3 0  9996
2 48774  87.8929 273.0252 0002250 100.9429 259.1954 13.15547518235263
ONEWEB-0222             
1 48775U 21045J   26098.98821769  .00000036  00000+0  61838-4 0  9996
2 48775  87.8939 272.9908 0001878  90.9959 269.1387 13.15550250235305
ONEWEB-0244             
1 48776U 21045K   26099.01437178  .00000204  00000+0  50814-3 0  9997
2 48776  87.8941 272.9763 0001894  94.3020 265.8327 13.15547576235879
ONEWEB-0247             
1 48777U 21045L   26099.01120572  .00000170  00000+0  41661-3 0  9997
2 48777  87.8930 273.0188 0002595  96.3706 263.7720 13.15547177235313
ONEWEB-0245             
1 48778U 21045M   26099.00644070  .00000218  00000+0  54424-3 0  9995
2 48778  87.8939 272.9923 0001799  86.9321 273.2015 13.15546824235288
ONEWEB-0229             
1 48779U 21045N   26099.00169018  .00000142  00000+0  34350-3 0  9992
2 48779  87.8937 272.9916 0001897  96.9984 263.1362 13.15547425235319
