[{"OBJECT_NAME":"ONEWEB-0208","OBJECT_ID":"2021-031AK","EPOCH":"2026-04-08T23:15:12.128832","MEAN_MOTION":13.1450097,"ECCENTRICITY":0.0001817,"INCLINATION":87.8937,"RA_OF_ASC_NODE":303.5212,"ARG_OF_PERICENTER":78.2588,"MEAN_ANOMALY":281.8746,"EPHEMERIS_TYPE":0,"CLASSIFICATION_TYPE":"U","NORAD_CAT_ID":48243,"ELEMENT_SET_NO":999,"REV_AT_EPOCH":23921,"BSTAR":-0.00045180999999999997,"MEAN_MOTION_DOT":-1.55e-06,"MEAN_MOTION_DDOT":0.0},{"OBJECT_NAME":"ONEWEB-0200","OBJECT_ID":"2021-031AL","EPOCH":"2026-04-09T00:12:17.003232","MEAN_MOTION":13.14502206,"ECCENTRICITY":0.0001626,"INCLINATION":87.8933,"RA_OF_ASC_NODE":303.5013,"ARG_OF_PERICENTER":84.0892,"MEAN_ANOMALY":276.0423,"EPHEMERIS_TYPE":0,"CLASSIFICATION_TYPE":"U","NORAD_CAT_ID":48244,"ELEMENT_SET_NO":999,"REV_AT_EPOCH":23914,"BSTAR":0.00076235,"MEAN_MOTION_DOT":2.95e-06,"MEAN_MOTION_DDOT":0.0},{"OBJECT_NAME":"ONEWEB-0217","OBJECT_ID":"2021-031AM","EPOCH":"2026-04-08T22:45:30.638592","MEAN_MOTION":13.14501381,"ECCENTRICITY":0.000181,"INCLINATION":87.8938,"RA_OF_ASC_NODE":303.5142,"ARG_OF_PERICENTER":76.4717,"MEAN_ANOMALY":283.6614,"EPHEMERIS_TYPE":0,"CLASSIFICATION_TYPE":"U","NORAD_CAT_ID":48245,"ELEMENT_SET_NO":999,"REV_AT_EPOCH":23908,"BSTAR":0.00057963,"MEAN_MOTION_DOT":2.28e-06,"MEAN_MOTION_DDOT":0.0},{"OBJECT_NAME":"ONEWEB-0211","OBJECT_ID":"2021-045A","EPOCH":"2026-04-09T00:18:19.863360","MEAN_MOTION":13.16192579,"ECCENTRICITY":0.0002188,"INCLINATION":87.8939,"RA_OF_ASC_NODE":272.8995,"ARG_OF_PERICENTER":78.3865,"MEAN_ANOMALY":281.7511,"EPHEMERIS_TYPE":0,"CLASSIFICATION_TYPE":"U","NORAD_CAT_ID":48767,"ELEMENT_SET_NO":999,"REV_AT_EPOCH":23534,"BSTAR":0.00023737,"MEAN_MOTION_DOT":1.03e-06,"MEAN_MOTION_DDOT":0.0},{"OBJECT_NAME":"ONEWEB-0223","OBJECT_ID":"2021-045B","EPOCH":"2026-04-08T23:32:46.520736","MEAN_MOTION":13.15546921,"ECCENTRICITY":0.0002133,"INCLINATION":87.8939,"RA_OF_ASC_NODE":272.9957,"ARG_OF_PERICENTER":88.2395,"MEAN_ANOMALY":271.898,"EPHEMERIS_TYPE":0,"CLASSIFICATION_TYPE":"U","NORAD_CAT_ID":48768,"ELEMENT_SET_NO":999,"REV_AT_EPOCH":23530,"BSTAR":-0.00013084000000000001,"MEAN_MOTION_DOT":-3.6e-07,"MEAN_MOTION_DDOT":0.0},{"OBJECT_NAME":"ONEWEB-0230","OBJECT_ID":"2021-045C","EPOCH":"2026-04-08T22:51:42.433344","MEAN_MOTION":13.1554716,"ECCENTRICITY":0.0001706,"INCLINATION":87.8932,"RA_OF_ASC_NODE":273.0214,"ARG_OF_PERICENTER":98.4775,"MEAN_ANOMALY":261.6549,"EPHEMERIS_TYPE":0,"CLASSIFICATION_TYPE":"U","NORAD_CAT_ID":48769,"ELEMENT_SET_NO":999,"REV_AT_EPOCH":23556,"BSTAR":-6.681200000000001e-05,"MEAN_MOTION_DOT":-1.2e-07,"MEAN_MOTION_DDOT":0.0},{"OBJECT_NAME":"ONEWEB-0237","OBJECT_ID":"2021-045D","EPOCH":"2026-04-08T22:35:44.129472","MEAN_MOTION":13.15547451,"ECCENTRICITY":0.000204,"INCLINATION":87.8933,"RA_OF_ASC_NODE":273.0253,"ARG_OF_PERICENTER":94.7912,"MEAN_ANOMALY":265.3451,"EPHEMERIS_TYPE":0,"CLASSIFICATION_TYPE":"U","NORAD_CAT_ID":48770,"ELEMENT_SET_NO":999,"REV_AT_EPOCH":23528,"BSTAR":-6.009100000000001e-05,"MEAN_MOTION_DOT":-1e-07,"MEAN_MOTION_DDOT":0.0},{"OBJECT_NAME":"ONEWEB-0235","OBJECT_ID":"2021-045E","EPOCH":"2026-04-08T23:48:44.503200","MEAN_MOTION":13.15547272,"ECCENTRICITY":0.0002174,"INCLINATION":87.8939,"RA_OF_ASC_NODE":272.9942,"ARG_OF_PERICENTER":90.2905,"MEAN_ANOMALY":269.8475,"EPHEMERIS_TYPE":0,"CLASSIFICATION_TYPE":"U","NORAD_CAT_ID":48771,"ELEMENT_SET_NO":999,"REV_AT_EPOCH":23528,"BSTAR":9.1593e-05,"MEAN_MOTION_DOT":4.7e-07,"MEAN_MOTION_DDOT":0.0},{"OBJECT_NAME":"ONEWEB-0242","OBJECT_ID":"2021-045F","EPOCH":"2026-04-09T05:08:10.539168","MEAN_MOTION":13.15547477,"ECCENTRICITY":0.000194,"INCLINATION":87.8941,"RA_OF_ASC_NODE":272.9457,"ARG_OF_PERICENTER":96.9568,"MEAN_ANOMALY":263.1783,"EPHEMERIS_TYPE":0,"CLASSIFICATION_TYPE":"U","NORAD_CAT_ID":48772,"ELEMENT_SET_NO":999,"REV_AT_EPOCH":23535,"BSTAR":9.1625e-05,"MEAN_MOTION_DOT":4.7e-07,"MEAN_MOTION_DDOT":0.0},{"OBJECT_NAME":"ONEWEB-0241","OBJECT_ID":"2021-045G","EPOCH":"2026-04-08T23:21:21.739392","MEAN_MOTION":13.15547009,"ECCENTRICITY":0.0002054,"INCLINATION":87.8929,"RA_OF_ASC_NODE":273.02,"ARG_OF_PERICENTER":84.9531,"MEAN_ANOMALY":275.1834,"EPHEMERIS_TYPE":0,"CLASSIFICATION_TYPE":"U","NORAD_CAT_ID":48773,"ELEMENT_SET_NO":999,"REV_AT_EPOCH":23523,"BSTAR":-0.00023825,"MEAN_MOTION_DOT":-7.7e-07,"MEAN_MOTION_DDOT":0.0},{"OBJECT_NAME":"ONEWEB-0243","OBJECT_ID":"2021-045H","EPOCH":"2026-04-09T00:07:00.961536","MEAN_MOTION":13.15547518,"ECCENTRICITY":0.000225,"INCLINATION":87.8929,"RA_OF_ASC_NODE":273.0252,"ARG_OF_PERICENTER":100.9429,"MEAN_ANOMALY":259.1954,"EPHEMERIS_TYPE":0,"CLASSIFICATION_TYPE":"U","NORAD_CAT_ID":48774,"ELEMENT_SET_NO":999,"REV_AT_EPOCH":23526,"BSTAR":0.00039190000000000004,"MEAN_MOTION_DOT":1.6e-06,"MEAN_MOTION_DDOT":0.0},{"OBJECT_NAME":"ONEWEB-0222","OBJECT_ID":"2021-045J","EPOCH":"2026-04-08T23:43:02.008416","MEAN_MOTION":13.1555025,"ECCENTRICITY":0.0001878,"INCLINATION":87.8939,"RA_OF_ASC_NODE":272.9908,"ARG_OF_PERICENTER":90.9959,"MEAN_ANOMALY":269.1387,"EPHEMERIS_TYPE":0,"CLASSIFICATION_TYPE":"U","NORAD_CAT_ID":48775,"ELEMENT_SET_NO":999,"REV_AT_EPOCH":23530,"BSTAR":6.183800000000001e-05,"MEAN_MOTION_DOT":3.6e-07,"MEAN_MOTION_DDOT":0.0},{"OBJECT_NAME":"ONEWEB-0244","OBJECT_ID":"2021-045K","EPOCH":"2026-04-09T00:20:41.721792","MEAN_MOTION":13.15547576,"ECCENTRICITY":0.0001894,"INCLINATION":87.8941,"RA_OF_ASC_NODE":272.9763,"ARG_OF_PERICENTER":94.302,"MEAN_ANOMALY":265.8327,"EPHEMERIS_TYPE":0,"CLASSIFICATION_TYPE":"U","NORAD_CAT_ID":48776,"ELEMENT_SET_NO":999,"REV_AT_EPOCH":23587,"BSTAR":0.00050814,"MEAN_MOTION_DOT":2.04e-06,"MEAN_MOTION_DDOT":0.0},{"OBJECT_NAME":"ONEWEB-0247","OBJECT_ID":"2021-045L","EPOCH":"2026-04-09T00:16:08.174208","MEAN_MOTION":13.15547177,"ECCENTRICITY":0.0002595,"INCLINATION":87.893,"RA_OF_ASC_NODE":273.0188,"ARG_OF_PERICENTER":96.3706,"MEAN_ANOMALY":263.772,"EPHEMERIS_TYPE":0,"CLASSIFICATION_TYPE":"U","NORAD_CAT_ID":48777,"ELEMENT_SET_NO":999,"REV_AT_EPOCH":23531,"BSTAR":0.00041661,"MEAN_MOTION_DOT":1.7e-06,"MEAN_MOTION_DDOT":0.0},{"OBJECT_NAME":"ONEWEB-0245","OBJECT_ID":"2021-045M","EPOCH":"2026-04-09T00:09:16.476480","MEAN_MOTION":13.15546824,"ECCENTRICITY":0.0001799,"INCLINATION":87.8939,"RA_OF_ASC_NODE":272.9923,"ARG_OF_PERICENTER":86.9321,"MEAN_ANOMALY":273.2015,"EPHEMERIS_TYPE":0,"CLASSIFICATION_TYPE":"U","NORAD_CAT_ID":48778,"ELEMENT_SET_NO":999,"REV_AT_EPOCH":23528,"BSTAR":0.00054424,"MEAN_MOTION_DOT":2.18e-06,"MEAN_MOTION_DDOT":0.0},{"OBJECT_NAME":"ONEWEB-0229","OBJECT_ID":"2021-045N","EPOCH":"2026-04-09T00:02:26.031552","MEAN_MOTION":13.15547425,"ECCENTRICITY":0.0001897,"INCLINATION":87.8937,"RA_OF_ASC_NODE":272.9916,"ARG_OF_PERICENTER":96.9984,"MEAN_ANOMALY":263.1362,"EPHEMERIS_TYPE":0,"CLASSIFICATION_TYPE":"U","NORAD_CAT_ID":48779,"ELEMENT_SET_NO":999,"REV_AT_EPOCH":23531,"BSTAR":0.00034350000000000006,"MEAN_MOTION_DOT":1.42e-06,"MEAN_MOTION_DDOT":0.0}]